NORAD_CAT_ID,OBJECT_NAME,OBJECT_TYPE,EPOCH,MEAN_MOTION,ECCENTRICITY,INCLINATION,RA_OF_ASC_NODE,ARG_OF_PERICENTER,MEAN_ANOMALY,BSTAR,MEAN_MOTION_DOT,MEAN_MOTION_DDOT,TLE_LINE0,TLE_LINE1,TLE_LINE2,SEMIMAJOR_AXIS,PERIOD,APOGEE,PERIGEE,DECAYED
49744.0,STARLINK-3231,PAYLOAD,2024-07-14 13:53:12,15.08843008,0.0001263,53.2175,336.4908,83.6475,276.4661,0.00028246,4.211e-05,0.0,0 STARLINK-3231,1 49744U 21115W   24196.57862222  .00004211  00000-0  28246-3 0  9997,2 49744  53.2175 336.4908 0001263  83.6475 276.4661 15.08843008144481,6917.871,95.437,540.61,538.862,0.0
49744.0,STARLINK-3231,PAYLOAD,2024-07-14 18:39:21,15.08858739,0.0001166,53.2163,335.5965,83.5959,276.5166,0.0008248,0.0001287,0.0,0 STARLINK-3231,1 49744U 21115W   24196.77733793  .00012870  00000-0  82480-3 0  9999,2 49744  53.2163 335.5965 0001166  83.5959 276.5166 15.08858739145624,6917.823,95.436,540.495,538.881,0.0
49744.0,STARLINK-3231,PAYLOAD,2024-07-15 08:57:50,15.08870646,0.000371,53.2166,332.9213,81.8181,278.3232,0.0013741,0.00021669,0.0,0 STARLINK-3231,1 49744U 21115W   24197.37350385  .00021669  00000-0  13741-2 0  9997,2 49744  53.2166 332.9213 0003710  81.8181 278.3232 15.08870646145714,6917.787,95.436,542.218,537.085,0.0
49744.0,STARLINK-3231,PAYLOAD,2024-07-15 15:19:23,15.08842982,0.0001535,53.2168,331.7297,97.5238,262.5929,0.001571,0.00024805,0.0,0 STARLINK-3231,1 49744U 21115W   24197.63846192  .00024805  00000-0  15710-2 0  9995,2 49744  53.2168 331.7297 0001535  97.5238 262.5929 15.08842982144646,6917.871,95.437,540.798,538.674,0.0
49744.0,STARLINK-3231,PAYLOAD,2024-07-16 02:27:04,15.08854618,0.0001393,53.2167,329.6501,84.9622,275.1529,0.00152,0.00023995,0.0,0 STARLINK-3231,1 49744U 21115W   24198.10214111  .00023995  00000-0  15200-2 0  9991,2 49744  53.2167 329.6501 0001393  84.9622 275.1529 15.08854618145824,6917.836,95.437,540.664,538.737,0.0
49744.0,STARLINK-3231,PAYLOAD,2024-07-16 13:34:47,15.08838297,0.0001499,53.217,327.5672,101.9668,258.1492,0.0013085,0.00020597,0.0,0 STARLINK-3231,1 49744U 21115W   24198.56582500  .00020597  00000-0  13085-2 0  9995,2 49744  53.2170 327.5672 0001499 101.9668 258.1492 15.08838297145893,6917.886,95.438,540.788,538.714,0.0
49744.0,STARLINK-3231,PAYLOAD,2024-07-16 15:10:10,15.08834683,0.0001524,53.2172,327.2706,97.9731,262.1434,0.0010375,0.0001626,0.0,0 STARLINK-3231,1 49744U 21115W   24198.63206576  .00016260  00000-0  10375-2 0  9990,2 49744  53.2172 327.2706 0001524  97.9731 262.1434 15.08834683144798,6917.897,95.438,540.816,538.707,0.0
49744.0,STARLINK-3231,PAYLOAD,2024-07-17 13:25:34,15.08840005,0.0001649,53.2183,323.1043,106.6541,253.4632,0.00033045,4.975e-05,0.0,0 STARLINK-3231,1 49744U 21115W   24199.55942732  .00004975  00000-0  33045-3 0  9993,2 49744  53.2183 323.1043 0001649 106.6541 253.4632 15.08840005146042,6917.88,95.438,540.886,538.605,0.0
49744.0,STARLINK-3231,PAYLOAD,2024-07-17 15:00:57,15.08840097,0.0001316,53.2179,322.8098,78.6783,281.4357,0.00033045,4.975e-05,0.0,0 STARLINK-3231,1 49744U 21115W   24199.62566789  .00004975  00000-0  33045-3 0  9995,2 49744  53.2179 322.8098 0001316  78.6783 281.4357 15.08840097144943,6917.88,95.438,540.655,538.835,0.0
49744.0,STARLINK-3231,PAYLOAD,2024-07-18 13:16:21,15.08838352,0.0001327,53.2166,318.6427,74.8988,285.2151,0.00016461,2.333e-05,0.0,0 STARLINK-3231,1 49744U 21115W   24200.55303095  .00002333  00000-0  16461-3 0  9998,2 49744  53.2166 318.6427 0001327  74.8988 285.2151 15.08838352146199,6917.885,95.438,540.668,538.832,0.0
49744.0,STARLINK-3231,PAYLOAD,2024-07-18 14:51:44,15.08839828,0.0001319,53.2166,318.3467,77.4995,282.6145,0.00019405,2.802e-05,0.0,0 STARLINK-3231,1 49744U 21115W   24200.61927065  .00002802  00000-0  19405-3 0  9996,2 49744  53.2166 318.3467 0001319  77.4995 282.6145 15.08839828145099,6917.881,95.438,540.658,538.833,0.0
49744.0,STARLINK-3231,PAYLOAD,2024-07-19 13:07:09,15.0883145,0.000125,53.2162,314.1831,65.2375,294.8747,-3.694e-05,-8.76e-06,0.0,0 STARLINK-3231,1 49744U 21115W   24201.54663489 -.00000876  00000-0 -36940-4 0  9991,2 49744  53.2162 314.1831 0001250  65.2375 294.8747 15.08831450146340,6917.907,95.438,540.636,538.907,0.0
49744.0,STARLINK-3231,PAYLOAD,2024-07-19 14:42:32,15.08833915,0.0001138,53.217,313.8885,73.0877,287.024,5.4153e-05,5.74e-06,0.0,0 STARLINK-3231,1 49744U 21115W   24201.61287480  .00000574  00000-0  54153-4 0  9991,2 49744  53.2170 313.8885 0001138  73.0877 287.0240 15.08833915145241,6917.899,95.438,540.551,538.977,0.0
49744.0,STARLINK-3231,PAYLOAD,2024-07-20 00:14:50,15.08851711,0.0001154,53.2156,312.1017,64.4496,295.6616,0.00025734,3.811e-05,0.0,0 STARLINK-3231,1 49744U 21115W   24202.01030401  .00003811  00000-0  25734-3 0  9994,2 49744  53.2156 312.1017 0001154  64.4496 295.6616 15.08851711146419,6917.845,95.437,540.508,538.911,0.0
49744.0,STARLINK-3231,PAYLOAD,2024-07-20 12:57:56,15.08836381,0.0001422,53.2189,309.731,96.4995,263.6159,4.7392e-05,4.66e-06,0.0,0 STARLINK-3231,1 49744U 21115W   24202.54023427  .00000466  00000-0  47392-4 0  9990,2 49744  53.2189 309.7310 0001422  96.4995 263.6159 15.08836381146491,6917.891,95.438,540.74,538.773,0.0
49744.0,STARLINK-3231,PAYLOAD,2024-07-20 14:33:19,15.08843304,0.0001227,53.2168,309.4291,69.0251,291.0872,0.00013821,1.913e-05,0.0,0 STARLINK-3231,1 49744U 21115W   24202.60647148  .00001913  00000-0  13821-3 0  9996,2 49744  53.2168 309.4291 0001227  69.0251 291.0872 15.08843304145395,6917.87,95.437,540.584,538.886,0.0
49744.0,STARLINK-3231,PAYLOAD,2024-07-21 00:05:37,15.0885129,0.0001185,53.2167,307.6437,72.2186,287.8936,0.00021988,3.214e-05,0.0,0 STARLINK-3231,1 49744U 21115W   24203.00390502  .00003214  00000-0  21988-3 0  9999,2 49744  53.2167 307.6437 0001185  72.2186 287.8936 15.08851290146569,6917.846,95.437,540.531,538.891,0.0
49744.0,STARLINK-3231,PAYLOAD,2024-07-21 12:48:43,15.08830066,0.0001403,53.217,305.2676,87.6804,272.4349,-2.5743e-05,-6.97e-06,0.0,0 STARLINK-3231,1 49744U 21115W   24203.53383871 -.00000697  00000-0 -25743-4 0  9996,2 49744  53.2170 305.2676 0001403  87.6804 272.4349 15.08830066146647,6917.911,95.438,540.746,538.805,0.0
49744.0,STARLINK-3231,PAYLOAD,2024-07-21 14:24:06,15.08842758,0.0001218,53.2176,304.9685,88.4144,271.6987,0.00016454,2.332e-05,0.0,0 STARLINK-3231,1 49744U 21115W   24203.60007209  .00002332  00000-0  16454-3 0  9996,2 49744  53.2176 304.9685 0001218  88.4144 271.6987 15.08842758145547,6917.872,95.437,540.58,538.894,0.0
49744.0,STARLINK-3231,PAYLOAD,2024-07-22 06:17:58,15.0883613,0.0001299,53.2166,301.9974,77.3361,282.7776,0.00016734,2.376e-05,0.0,0 STARLINK-3231,1 49744U 21115W   24204.26247779  .00002376  00000-0  16734-3 0  9996,2 49744  53.2166 301.9974 0001299  77.3361 282.7776 15.08836130146751,6917.892,95.438,540.656,538.859,0.0
49744.0,STARLINK-3231,PAYLOAD,2024-07-23 12:30:17,15.08836645,0.0001387,53.2166,296.3487,77.6141,282.5007,0.0005056,7.767e-05,0.0,0 STARLINK-3231,1 49744U 21115W   24205.52104134  .00007767  00000-0  50560-3 0  9997,2 49744  53.2166 296.3487 0001387  77.6141 282.5007 15.08836645146941,6917.891,95.438,540.715,538.796,0.0
49744.0,STARLINK-3231,PAYLOAD,2024-07-23 15:41:03,15.0884712,0.0001468,53.2167,295.7547,69.1436,290.9713,0.00017978,2.575e-05,0.0,0 STARLINK-3231,1 49744U 21115W   24205.65351403  .00002575  00000-0  17978-3 0  9992,2 49744  53.2167 295.7547 0001468  69.1436 290.9713 15.08847120146964,6917.859,95.437,540.739,538.708,0.0
49744.0,STARLINK-3231,PAYLOAD,2024-07-24 09:10:18,15.08837044,0.0001581,53.2169,292.4836,68.8348,291.2813,4.0247e-05,3.53e-06,0.0,0 STARLINK-3231,1 49744U 21115W   24206.38216013  .00000353  00000-0  40247-4 0  9998,2 49744  53.2169 292.4836 0001581  68.8348 291.2813 15.08837044147077,6917.889,95.438,540.848,538.661,0.0
49744.0,STARLINK-3231,PAYLOAD,2024-07-25 05:50:19,15.08836457,0.0001538,53.2142,288.6115,88.469,271.6478,0.00011781,1.587e-05,0.0,0 STARLINK-3231,1 49744U 21115W   24207.24327989  .00001587  00000-0  11781-3 0  9999,2 49744  53.2142 288.6115 0001538  88.4690 271.6478 15.08836457146092,6917.891,95.438,540.82,538.692,0.0
49744.0,STARLINK-3231,PAYLOAD,2024-07-25 10:36:28,15.08837351,0.0001347,53.2168,287.7168,95.6266,264.488,9.3531e-05,1.201e-05,0.0,0 STARLINK-3231,1 49744U 21115W   24207.44199916  .00001201  00000-0  93531-4 0  9995,2 49744  53.2168 287.7168 0001347  95.6266 264.4880 15.08837351147233,6917.888,95.438,540.685,538.822,0.0
49744.0,STARLINK-3231,PAYLOAD,2024-07-26 13:38:01,15.08844431,0.0001288,53.2168,282.6652,86.7238,273.3902,0.00015515,2.182e-05,0.0,0 STARLINK-3231,1 49744U 21115W   24208.56807414  .00002182  00000-0  15515-3 0  9992,2 49744  53.2168 282.6652 0001288  86.7238 273.3902 15.08844431146295,6917.867,95.437,540.623,538.841,0.0
49744.0,STARLINK-3231,PAYLOAD,2024-07-26 21:34:56,15.08856967,0.0001186,53.2169,281.1778,85.0415,275.0712,0.00026311,3.904e-05,0.0,0 STARLINK-3231,1 49744U 21115W   24208.89926125  .00003904  00000-0  26311-3 0  9998,2 49744  53.2169 281.1778 0001186  85.0415 275.0712 15.08856967146346,6917.829,95.436,540.514,538.873,0.0
49744.0,STARLINK-3231,PAYLOAD,2024-07-27 10:18:03,15.08827102,0.0001467,53.2151,278.8,82.5956,277.5203,-0.000129,-2.34e-05,0.0,0 STARLINK-3231,1 49744U 21115W   24209.42920395 -.00002340  00000-0 -12900-3 0  9995,2 49744  53.2151 278.8000 0001467  82.5956 277.5203 15.08827102147535,6917.92,95.438,540.8,538.77,0.0
49744.0,STARLINK-3231,PAYLOAD,2024-07-28 13:19:35,15.08847856,0.0001539,53.2151,273.7452,85.9258,274.191,0.00023094,3.39e-05,0.0,0 STARLINK-3231,1 49744U 21115W   24210.55527607  .00003390  00000-0  23094-3 0  9990,2 49744  53.2151 273.7452 0001539  85.9258 274.1910 15.08847856147707,6917.856,95.437,540.786,538.657,0.0
49744.0,STARLINK-3231,PAYLOAD,2024-07-29 09:59:36,15.08841838,0.0001643,53.2156,269.8779,92.299,267.819,0.00017046,2.426e-05,0.0,0 STARLINK-3231,1 49744U 21115W   24211.41639937  .00002426  00000-0  17046-3 0  9995,2 49744  53.2156 269.8779 0001643  92.2990 267.8190 15.08841838147837,6917.875,95.437,540.876,538.603,0.0
